*******************************************************************************
 Revised: Mar 12, 2021           Callisto / (Jupiter)                       504

 SATELLITE PHYSICAL PROPERTIES:
  Mean radius (km)      = 2410.3 +- 1.5       Density (g cm^-3)= 1.834 +- 0.004
  GM (km^3/s^2)         = 7179.2834 +- 0.0097 Geometric Albedo = 0.17  +- 0.02

 SATELLITE ORBIT (at J2000.0 epoch, 2000-Jan-1.5):
  Semi-major axis, a (km)~ 1,883,000          Orbital period   ~ 16.691    d
  Eccentricity, e        ~ 0.00744            Rotational period= Synchronous
  Inclination, i  (deg)  ~ 0.200 
*******************************************************************************


*******************************************************************************
Ephemeris / WWW_USER Fri Nov 26 17:08:22 2021 Pasadena, USA      / Horizons    
*******************************************************************************
Target body name: Callisto (504)                  {source: jup365_merged}
Center body name: Earth (399)                     {source: DE441}
Center-site name: GEOCENTRIC
*******************************************************************************
Start time      : A.D. 1970-Jan-01 00:00:00.0000 UT      
Stop  time      : A.D. 2050-Jan-01 00:00:00.0000 UT      
Step-size       : 43200 minutes
*******************************************************************************
Target pole/equ : IAU_CALLISTO                    {West-longitude positive}
Target radii    : 2410.3 x 2410.3 x 2410.3 km     {Equator, meridian, pole}    
Center geodetic : 0.00000000,0.00000000,0.0000000 {E-lon(deg),Lat(deg),Alt(km)}
Center cylindric: 0.00000000,0.00000000,0.0000000 {E-lon(deg),Dxy(km),Dz(km)}
Center pole/equ : ITRF93                          {East-longitude positive}
Center radii    : 6378.1 x 6378.1 x 6356.8 km     {Equator, meridian, pole}    
Target primary  : Jupiter
Vis. interferer : MOON (R_eq= 1737.400) km        {source: DE441}
Rel. light bend : Sun, EARTH                      {source: DE441}
Rel. lght bnd GM: 1.3271E+11, 3.9860E+05 km^3/s^2                              
Atmos refraction: NO (AIRLESS)
RA format       : DEG
Time format     : BOTH
EOP file        : eop.211125.p220216                                           
EOP coverage    : DATA-BASED 1962-JAN-20 TO 2021-NOV-25. PREDICTS-> 2022-FEB-15
Units conversion: 1 au= 149597870.700 km, c= 299792.458 km/s, 1 day= 86400.0 s 
Table cut-offs 1: Elevation (-90.0deg=NO ),Airmass (>38.000=NO), Daylight (NO )
Table cut-offs 2: Solar elongation (  0.0,180.0=NO ),Local Hour Angle( 0.0=NO )
Table cut-offs 3: RA/DEC angular rate (     0.0=NO )                           
*******************************************************************************
 Date__(UT)__HR:MN Date_________JDUT     N.Pole-RA  N.Pole-DC
*************************************************************
$$SOE
 1979-Jun-13 00:00 2444037.500000000     268.29996   64.61131
 1979-Jul-13 00:00 2444067.500000000     268.29995   64.61128
 1979-Aug-12 00:00 2444097.500000000     268.30000   64.61126
 1979-Sep-11 00:00 2444127.500000000     268.30010   64.61127
 1979-Oct-11 00:00 2444157.500000000     268.30025   64.61131
 1979-Nov-10 00:00 2444187.500000000     268.30045   64.61137
 1979-Dec-10 00:00 2444217.500000000     268.30068   64.61145
 1980-Jan-09 00:00 2444247.500000000     268.30095   64.61157
 1980-Feb-08 00:00 2444277.500000000     268.30124   64.61171
 1980-Mar-09 00:00 2444307.500000000     268.30156   64.61188
 1980-Apr-08 00:00 2444337.500000000     268.30188   64.61209
 1980-May-08 00:00 2444367.500000000     268.30222   64.61232
 1980-Jun-07 00:00 2444397.500000000     268.30255   64.61258
 1980-Jul-07 00:00 2444427.500000000     268.30288   64.61288
 1980-Aug-06 00:00 2444457.500000000     268.30320   64.61320
 1980-Sep-05 00:00 2444487.500000000     268.30349   64.61355
 1980-Oct-05 00:00 2444517.500000000     268.30376   64.61394
 1980-Nov-04 00:00 2444547.500000000     268.30400   64.61435
 1980-Dec-04 00:00 2444577.500000000     268.30421   64.61478
 1981-Jan-03 00:00 2444607.500000000     268.30437   64.61524
 1981-Feb-02 00:00 2444637.500000000     268.30448   64.61573
 1981-Mar-04 00:00 2444667.500000000     268.30454   64.61624
 1981-Apr-03 00:00 2444697.500000000     268.30454   64.61676
 1981-May-03 00:00 2444727.500000000     268.30448   64.61731
 1981-Jun-02 00:00 2444757.500000000     268.30436   64.61786
 1981-Jul-02 00:00 2444787.500000000     268.30417   64.61844
 1981-Aug-01 00:00 2444817.500000000     268.30391   64.61902
 1981-Aug-31 00:00 2444847.500000000     268.30358   64.61961
 1981-Sep-30 00:00 2444877.500000000     268.30317   64.62020
 1981-Oct-30 00:00 2444907.500000000     268.30269   64.62080
 1981-Nov-29 00:00 2444937.500000000     268.30214   64.62140
 1981-Dec-29 00:00 2444967.500000000     268.30151   64.62200
 1982-Jan-28 00:00 2444997.500000000     268.30081   64.62259
 1982-Feb-27 00:00 2445027.500000000     268.30003   64.62317
 1982-Mar-29 00:00 2445057.500000000     268.29919   64.62374
 1982-Apr-28 00:00 2445087.500000000     268.29828   64.62430
 1982-May-28 00:00 2445117.500000000     268.29730   64.62485
 1982-Jun-27 00:00 2445147.500000000     268.29627   64.62538
 1982-Jul-27 00:00 2445177.500000000     268.29518   64.62589
 1982-Aug-26 00:00 2445207.500000000     268.29403   64.62638
 1982-Sep-25 00:00 2445237.500000000     268.29284   64.62684
 1982-Oct-25 00:00 2445267.500000000     268.29161   64.62728
 1982-Nov-24 00:00 2445297.500000000     268.29034   64.62769
 1982-Dec-24 00:00 2445327.500000000     268.28904   64.62808
 1983-Jan-23 00:00 2445357.500000000     268.28771   64.62844
 1983-Feb-22 00:00 2445387.500000000     268.28637   64.62877
 1983-Mar-24 00:00 2445417.500000000     268.28501   64.62907
 1983-Apr-23 00:00 2445447.500000000     268.28365   64.62934
 1983-May-23 00:00 2445477.500000000     268.28229   64.62958
 1983-Jun-22 00:00 2445507.500000000     268.28094   64.62979
 1983-Jul-22 00:00 2445537.500000000     268.27961   64.62998
 1983-Aug-21 00:00 2445567.500000000     268.27829   64.63013
 1983-Sep-20 00:00 2445597.500000000     268.27700   64.63025
 1983-Oct-20 00:00 2445627.500000000     268.27574   64.63035
 1983-Nov-19 00:00 2445657.500000000     268.27453   64.63042
 1983-Dec-19 00:00 2445687.500000000     268.27336   64.63047
 1984-Jan-18 00:00 2445717.500000000     268.27223   64.63049
 1984-Feb-17 00:00 2445747.500000000     268.27116   64.63049
 1984-Mar-18 00:00 2445777.500000000     268.27016   64.63047
 1984-Apr-17 00:00 2445807.500000000     268.26921   64.63044
 1984-May-17 00:00 2445837.500000000     268.26833   64.63039
 1984-Jun-16 00:00 2445867.500000000     268.26752   64.63033
 1984-Jul-16 00:00 2445897.500000000     268.26678   64.63026
 1984-Aug-15 00:00 2445927.500000000     268.26612   64.63018
 1984-Sep-14 00:00 2445957.500000000     268.26554   64.63009
 1984-Oct-14 00:00 2445987.500000000     268.26503   64.63001
 1984-Nov-13 00:00 2446017.500000000     268.26459   64.62992
 1984-Dec-13 00:00 2446047.500000000     268.26424   64.62983
 1985-Jan-12 00:00 2446077.500000000     268.26395   64.62975
 1985-Feb-11 00:00 2446107.500000000     268.26375   64.62968
 1985-Mar-13 00:00 2446137.500000000     268.26361   64.62962
 1985-Apr-12 00:00 2446167.500000000     268.26355   64.62957
 1985-May-12 00:00 2446197.500000000     268.26355   64.62954
 1985-Jun-11 00:00 2446227.500000000     268.26362   64.62953
 1985-Jul-11 00:00 2446257.500000000     268.26375   64.62953
 1985-Aug-10 00:00 2446287.500000000     268.26393   64.62956
 1985-Sep-09 00:00 2446317.500000000     268.26416   64.62961
 1985-Oct-09 00:00 2446347.500000000     268.26444   64.62968
 1985-Nov-08 00:00 2446377.500000000     268.26475   64.62978
 1985-Dec-08 00:00 2446407.500000000     268.26510   64.62991
 1986-Jan-07 00:00 2446437.500000000     268.26548   64.63006
 1986-Feb-06 00:00 2446467.500000000     268.26588   64.63025
 1986-Mar-08 00:00 2446497.500000000     268.26629   64.63047
 1986-Apr-07 00:00 2446527.500000000     268.26672   64.63071
 1986-May-07 00:00 2446557.500000000     268.26714   64.63099
 1986-Jun-06 00:00 2446587.500000000     268.26756   64.63129
 1986-Jul-06 00:00 2446617.500000000     268.26797   64.63163
 1986-Aug-05 00:00 2446647.500000000     268.26836   64.63200
 1986-Sep-04 00:00 2446677.500000000     268.26873   64.63239
 1986-Oct-04 00:00 2446707.500000000     268.26907   64.63282
 1986-Nov-03 00:00 2446737.500000000     268.26937   64.63327
 1986-Dec-03 00:00 2446767.500000000     268.26963   64.63374
 1987-Jan-02 00:00 2446797.500000000     268.26984   64.63424
 1987-Feb-01 00:00 2446827.500000000     268.27000   64.63476
 1987-Mar-03 00:00 2446857.500000000     268.27011   64.63530
 1987-Apr-02 00:00 2446887.500000000     268.27016   64.63586
 1987-May-02 00:00 2446917.500000000     268.27014   64.63643
 1987-Jun-01 00:00 2446947.500000000     268.27005   64.63702
 1987-Jul-01 00:00 2446977.500000000     268.26990   64.63761
 1987-Jul-31 00:00 2447007.500000000     268.26967   64.63822
 1987-Aug-30 00:00 2447037.500000000     268.26937   64.63883
 1987-Sep-29 00:00 2447067.500000000     268.26900   64.63945
 1987-Oct-29 00:00 2447097.500000000     268.26855   64.64006
 1987-Nov-28 00:00 2447127.500000000     268.26803   64.64068
 1987-Dec-28 00:00 2447157.500000000     268.26743   64.64129
 1988-Jan-27 00:00 2447187.500000000     268.26677   64.64189
 1988-Feb-26 00:00 2447217.500000000     268.26603   64.64248
 1988-Mar-27 00:00 2447247.500000000     268.26522   64.64306
 1988-Apr-26 00:00 2447277.500000000     268.26435   64.64362
 1988-May-26 00:00 2447307.500000000     268.26342   64.64417
 1988-Jun-25 00:00 2447337.500000000     268.26243   64.64470
 1988-Jul-25 00:00 2447367.500000000     268.26139   64.64521
 1988-Aug-24 00:00 2447397.500000000     268.26030   64.64570
 1988-Sep-23 00:00 2447427.500000000     268.25917   64.64616
 1988-Oct-23 00:00 2447457.500000000     268.25800   64.64659
